[{"OBJECT_NAME":"YAOGAN-30 11C","OBJECT_ID":"2021-065D","EPOCH":"2026-03-09T22:23:40.743744","MEAN_MOTION":15.02147773,"ECCENTRICITY":0.00031824,"INCLINATION":34.9942,"RA_OF_ASC_NODE":157.3601,"ARG_OF_PERICENTER":128.8602,"MEAN_ANOMALY":231.239,"EPHEMERIS_TYPE":0,"CLASSIFICATION_TYPE":"U","NORAD_CAT_ID":49029,"ELEMENT_SET_NO":999,"REV_AT_EPOCH":25372,"BSTAR":0.00028936186,"MEAN_MOTION_DOT":3.857e-5,"MEAN_MOTION_DDOT":0},{"OBJECT_NAME":"CZ-4C DEB","OBJECT_ID":"2016-049F","EPOCH":"2026-03-09T07:30:38.295072","MEAN_MOTION":14.98603573,"ECCENTRICITY":0.00676497,"INCLINATION":98.3214,"RA_OF_ASC_NODE":204.4397,"ARG_OF_PERICENTER":163.6943,"MEAN_ANOMALY":196.6477,"EPHEMERIS_TYPE":0,"CLASSIFICATION_TYPE":"U","NORAD_CAT_ID":43601,"ELEMENT_SET_NO":999,"REV_AT_EPOCH":61767,"BSTAR":0.0021508763,"MEAN_MOTION_DOT":0.00027067,"MEAN_MOTION_DDOT":0}]
